start=new Date('2022-05-13T00:00:00.000Z').valueOf();
sats=[{"MEAN_MOTION":"15.08823968","ARG_OF_PERICENTER":"46.5051","EPHEMERIS_TYPE":"0","MEAN_ELEMENT_THEORY":"SGP4","RCS_SIZE":"LARGE","INCLINATION":"53.0544","OBJECT_ID":"2020-006F","COUNTRY_CODE":"US","MEAN_MOTION_DDOT":"0.0000000000000","CENTER_NAME":"EARTH","MEAN_MOTION_DOT":"0.00016042","PERIAPSIS":"539.382","DECAY_DATE":null,"EPOCH":"2022-05-12T13:51:17.488800","REV_AT_EPOCH":"12589","TLE_LINE2":"2 45049  53.0544  77.6992 0000596  46.5051 313.5988 15.08823968125898","LAUNCH_DATE":"2020-01-29","FILE":"3442533","REF_FRAME":"TEME","MEAN_ANOMALY":"313.5988","TIME_SYSTEM":"UTC","PERIOD":"95.439","ECCENTRICITY":"0.00005960","CLASSIFICATION_TYPE":"U","BSTAR":"0.00102410000000","TLE_LINE1":"1 45049U 20006F   22132.57728575  .00016042  00000-0  10241-2 0  9999","OBJECT_TYPE":"PAYLOAD","OBJECT_NAME":"STARLINK-1135","GP_ID":"203365151","SEMIMAJOR_AXIS":"6917.929","ELEMENT_SET_NO":"999","RA_OF_ASC_NODE":"77.6992","APOAPSIS":"540.207","NORAD_CAT_ID":"45049","SITE":"AFETR"},{"DECAY_DATE":null,"PERIAPSIS":"545.885","MEAN_MOTION_DOT":"0.00002854","CENTER_NAME":"EARTH","MEAN_MOTION_DDOT":"0.0000000000000","COUNTRY_CODE":"US","OBJECT_ID":"2020-006G","INCLINATION":"53.0537","RCS_SIZE":"LARGE","MEAN_ELEMENT_THEORY":"SGP4","EPHEMERIS_TYPE":"0","ARG_OF_PERICENTER":"54.2317","MEAN_MOTION":"15.06405111","REF_FRAME":"TEME","FILE":"3442534","LAUNCH_DATE":"2020-01-29","TLE_LINE2":"2 45050  53.0537  77.2167 0001896  54.2317 305.8848 15.06405111125924","REV_AT_EPOCH":"12592","EPOCH":"2022-05-12T20:40:00.074208","TLE_LINE1":"1 45050U 20006G   22132.86111197  .00002854  00000-0  21038-3 0  9992","BSTAR":"0.00021038000000","ECCENTRICITY":"0.00018960","CLASSIFICATION_TYPE":"U","PERIOD":"95.592","TIME_SYSTEM":"UTC","MEAN_ANOMALY":"305.8848","SITE":"AFETR","NORAD_CAT_ID":"45050","APOAPSIS":"548.511","RA_OF_ASC_NODE":"77.2167","ELEMENT_SET_NO":"999","SEMIMAJOR_AXIS":"6925.333","GP_ID":"203390063","OBJECT_TYPE":"PAYLOAD","OBJECT_NAME":"STARLINK-1140"},{"CENTER_NAME":"EARTH","MEAN_MOTION_DOT":"0.00017585","MEAN_MOTION_DDOT":"0.0000000000000","DECAY_DATE":null,"PERIAPSIS":"530.657","EPHEMERIS_TYPE":"0","ARG_OF_PERICENTER":"75.1582","MEAN_MOTION":"15.11238367","COUNTRY_CODE":"US","OBJECT_ID":"2020-006H","INCLINATION":"53.0518","RCS_SIZE":"LARGE","MEAN_ELEMENT_THEORY":"SGP4","LAUNCH_DATE":"2020-01-29","REF_FRAME":"TEME","FILE":"3442533","REV_AT_EPOCH":"12591","EPOCH":"2022-05-12T12:55:54.026400","TLE_LINE2":"2 45051  53.0518  75.9915 0002557  75.1582 284.9692 15.11238367125917","BSTAR":"0.00104890000000","TLE_LINE1":"1 45051U 20006H   22132.53881975  .00017585  00000-0  10489-2 0  9999","TIME_SYSTEM":"UTC","MEAN_ANOMALY":"284.9692","CLASSIFICATION_TYPE":"U","ECCENTRICITY":"0.00025570","PERIOD":"95.286","RA_OF_ASC_NODE":"75.9915","ELEMENT_SET_NO":"999","SITE":"AFETR","NORAD_CAT_ID":"45051","APOAPSIS":"534.191","OBJECT_TYPE":"PAYLOAD","OBJECT_NAME":"STARLINK-1141","SEMIMAJOR_AXIS":"6910.559","GP_ID":"203364149"},{"SEMIMAJOR_AXIS":"6925.355","GP_ID":"203364901","OBJECT_NAME":"STARLINK-1148","OBJECT_TYPE":"PAYLOAD","NORAD_CAT_ID":"45052","APOAPSIS":"548.332","SITE":"AFETR","RA_OF_ASC_NODE":"78.6763","ELEMENT_SET_NO":"999","ECCENTRICITY":"0.00016050","CLASSIFICATION_TYPE":"U","PERIOD":"95.592","MEAN_ANOMALY":"297.6481","TIME_SYSTEM":"UTC","TLE_LINE1":"1 45052U 20006J   22132.53675172 -.00000051  00000-0  15495-4 0  9995","BSTAR":"0.00001549500000","TLE_LINE2":"2 45052  53.0557  78.6763 0001605  62.4671 297.6481 15.06397835125875","EPOCH":"2022-05-12T12:52:55.348608","REV_AT_EPOCH":"12587","FILE":"3442533","REF_FRAME":"TEME","LAUNCH_DATE":"2020-01-29","RCS_SIZE":"LARGE","MEAN_ELEMENT_THEORY":"SGP4","COUNTRY_CODE":"US","OBJECT_ID":"2020-006J","INCLINATION":"53.0557","MEAN_MOTION":"15.06397835","EPHEMERIS_TYPE":"0","ARG_OF_PERICENTER":"62.4671","PERIAPSIS":"546.109","DECAY_DATE":null,"MEAN_MOTION_DDOT":"0.0000000000000","CENTER_NAME":"EARTH","MEAN_MOTION_DOT":"-0.00000051"},{"MEAN_ELEMENT_THEORY":"SGP4","RCS_SIZE":"LARGE","INCLINATION":"53.0013","OBJECT_ID":"2020-006K","COUNTRY_CODE":"US","MEAN_MOTION":"15.11629239","ARG_OF_PERICENTER":"75.4771","EPHEMERIS_TYPE":"0","PERIAPSIS":"529.617","DECAY_DATE":null,"MEAN_MOTION_DDOT":"0.0000000000000","MEAN_MOTION_DOT":"0.00018079","CENTER_NAME":"EARTH","TLE_LINE2":"2 45053  53.0013  72.2780 0002339  75.4771 284.6479 15.11629239125934","EPOCH":"2022-05-12T13:07:44.014080","REV_AT_EPOCH":"12593","FILE":"3442533","REF_FRAME":"TEME","LAUNCH_DATE":"2020-01-29","PERIOD":"95.261","CLASSIFICATION_TYPE":"U","ECCENTRICITY":"0.00023390","MEAN_ANOMALY":"284.6479","TIME_SYSTEM":"UTC","TLE_LINE1":"1 45053U 20006K   22132.54703720  .00018079  00000-0  10662-2 0  9995","BSTAR":"0.00106620000000","SEMIMAJOR_AXIS":"6909.368","GP_ID":"203364652","OBJECT_NAME":"STARLINK-1155","OBJECT_TYPE":"PAYLOAD","APOAPSIS":"532.849","NORAD_CAT_ID":"45053","SITE":"AFETR","ELEMENT_SET_NO":"999","RA_OF_ASC_NODE":"72.2780"},{"LAUNCH_DATE":"2020-01-29","REF_FRAME":"TEME","FILE":"3442534","REV_AT_EPOCH":"12591","EPOCH":"2022-05-12T19:09:45.756000","TLE_LINE2":"2 45054  53.0548  77.5169 0001913  61.9577 298.1605 15.06406226125910","MEAN_MOTION_DOT":"0.00001331","CENTER_NAME":"EARTH","MEAN_MOTION_DDOT":"0.0000000000000","DECAY_DATE":null,"PERIAPSIS":"545.870","ARG_OF_PERICENTER":"61.9577","EPHEMERIS_TYPE":"0","MEAN_MOTION":"15.06406226","INCLINATION":"53.0548","OBJECT_ID":"2020-006L","COUNTRY_CODE":"US","MEAN_ELEMENT_THEORY":"SGP4","RCS_SIZE":"LARGE","ELEMENT_SET_NO":"999","RA_OF_ASC_NODE":"77.5169","SITE":"AFETR","APOAPSIS":"548.519","NORAD_CAT_ID":"45054","OBJECT_TYPE":"PAYLOAD","OBJECT_NAME":"STARLINK-1156","SEMIMAJOR_AXIS":"6925.329","GP_ID":"203389563","BSTAR":"0.00010823000000","TLE_LINE1":"1 45054U 20006L   22132.79844625  .00001331  00000-0  10823-3 0  9996","MEAN_ANOMALY":"298.1605","TIME_SYSTEM":"UTC","PERIOD":"95.592","CLASSIFICATION_TYPE":"U","ECCENTRICITY":"0.00019130"},{"BSTAR":"0.00017652000000","TLE_LINE1":"1 45057U 20006P   22132.87954277  .00002349  00000-0  17652-3 0  9990","MEAN_ANOMALY":"293.7253","TIME_SYSTEM":"UTC","CLASSIFICATION_TYPE":"U","ECCENTRICITY":"0.00017940","PERIOD":"95.592","RA_OF_ASC_NODE":"77.1283","ELEMENT_SET_NO":"999","NORAD_CAT_ID":"45057","APOAPSIS":"548.460","SITE":"AFETR","OBJECT_NAME":"STARLINK-1159","OBJECT_TYPE":"PAYLOAD","GP_ID":"203390314","SEMIMAJOR_AXIS":"6925.353","MEAN_MOTION_DDOT":"0.0000000000000","MEAN_MOTION_DOT":"0.00002349","CENTER_NAME":"EARTH","PERIAPSIS":"545.975","DECAY_DATE":null,"MEAN_MOTION":"15.06398585","EPHEMERIS_TYPE":"0","ARG_OF_PERICENTER":"66.3924","RCS_SIZE":"LARGE","MEAN_ELEMENT_THEORY":"SGP4","COUNTRY_CODE":"US","OBJECT_ID":"2020-006P","INCLINATION":"53.0568","LAUNCH_DATE":"2020-01-29","FILE":"3442534","REF_FRAME":"TEME","EPOCH":"2022-05-12T21:06:32.495328","REV_AT_EPOCH":"12593","TLE_LINE2":"2 45057  53.0568  77.1283 0001794  66.3924 293.7253 15.06398585125930"},{"GP_ID":"203364402","SEMIMAJOR_AXIS":"6925.332","OBJECT_TYPE":"PAYLOAD","OBJECT_NAME":"STARLINK-1162","SITE":"AFETR","NORAD_CAT_ID":"45058","APOAPSIS":"548.470","RA_OF_ASC_NODE":"78.6571","ELEMENT_SET_NO":"999","ECCENTRICITY":"0.00018380","CLASSIFICATION_TYPE":"U","PERIOD":"95.592","MEAN_ANOMALY":"302.7372","TIME_SYSTEM":"UTC","TLE_LINE1":"1 45058U 20006Q   22132.54042958  .00001675  00000-0  13128-3 0  9994","BSTAR":"0.00013128000000","TLE_LINE2":"2 45058  53.0566  78.6571 0001838  57.3794 302.7372 15.06405420125883","REV_AT_EPOCH":"12588","EPOCH":"2022-05-12T12:58:13.115712","REF_FRAME":"TEME","FILE":"3442533","LAUNCH_DATE":"2020-01-29","COUNTRY_CODE":"US","INCLINATION":"53.0566","OBJECT_ID":"2020-006Q","RCS_SIZE":"LARGE","MEAN_ELEMENT_THEORY":"SGP4","EPHEMERIS_TYPE":"0","ARG_OF_PERICENTER":"57.3794","MEAN_MOTION":"15.06405420","DECAY_DATE":null,"PERIAPSIS":"545.924","MEAN_MOTION_DOT":"0.00001675","CENTER_NAME":"EARTH","MEAN_MOTION_DDOT":"0.0000000000000"},{"LAUNCH_DATE":"2020-01-29","REF_FRAME":"TEME","FILE":"3442533","REV_AT_EPOCH":"12588","EPOCH":"2022-05-12T13:30:05.189184","TLE_LINE2":"2 45059  53.0563  78.5739 0001764  60.3238 299.7926 15.06398514125886","CENTER_NAME":"EARTH","MEAN_MOTION_DOT":"0.00002594","MEAN_MOTION_DDOT":"0.0000000000000","DECAY_DATE":null,"PERIAPSIS":"545.996","ARG_OF_PERICENTER":"60.3238","EPHEMERIS_TYPE":"0","MEAN_MOTION":"15.06398514","INCLINATION":"53.0563","OBJECT_ID":"2020-006R","COUNTRY_CODE":"US","MEAN_ELEMENT_THEORY":"SGP4","RCS_SIZE":"LARGE","ELEMENT_SET_NO":"999","RA_OF_ASC_NODE":"78.5739","SITE":"AFETR","APOAPSIS":"548.440","NORAD_CAT_ID":"45059","OBJECT_TYPE":"PAYLOAD","OBJECT_NAME":"STARLINK-1165","SEMIMAJOR_AXIS":"6925.353","GP_ID":"203365152","BSTAR":"0.00019300000000","TLE_LINE1":"1 45059U 20006R   22132.56256006  .00002594  00000-0  19300-3 0  9997","MEAN_ANOMALY":"299.7926","TIME_SYSTEM":"UTC","PERIOD":"95.592","CLASSIFICATION_TYPE":"U","ECCENTRICITY":"0.00017640"},{"REF_FRAME":"TEME","FILE":"3442533","LAUNCH_DATE":"2020-01-29","TLE_LINE2":"2 45060  53.0560  78.5832 0002415  53.2571 306.8640 15.06404083125886","REV_AT_EPOCH":"12588","EPOCH":"2022-05-12T13:24:46.024128","DECAY_DATE":null,"PERIAPSIS":"545.529","CENTER_NAME":"EARTH","MEAN_MOTION_DOT":"0.00001106","MEAN_MOTION_DDOT":"0.0000000000000","OBJECT_ID":"2020-006S","INCLINATION":"53.0560","COUNTRY_CODE":"US","MEAN_ELEMENT_THEORY":"SGP4","RCS_SIZE":"LARGE","ARG_OF_PERICENTER":"53.2571","EPHEMERIS_TYPE":"0","MEAN_MOTION":"15.06404083","SITE":"AFETR","APOAPSIS":"548.874","NORAD_CAT_ID":"45060","ELEMENT_SET_NO":"999","RA_OF_ASC_NODE":"78.5832","SEMIMAJOR_AXIS":"6925.336","GP_ID":"203363900","OBJECT_NAME":"STARLINK-1166","OBJECT_TYPE":"PAYLOAD","TLE_LINE1":"1 45060U 20006S   22132.55886602  .00001106  00000-0  93144-4 0  9996","BSTAR":"0.00009314400000","PERIOD":"95.592","CLASSIFICATION_TYPE":"U","ECCENTRICITY":"0.00024150","TIME_SYSTEM":"UTC","MEAN_ANOMALY":"306.8640"}];
